{
"type": "FeatureCollection",
"name": "sawah",
"crs": { "type": "name", "properties": { "name": "urn:ogc:def:crs:OGC:1.3:CRS84" } },
"features": [
{ "type": "Feature", "properties": { "NAMOBJ": null, "JNSSWH": 999, "FCODE": null, "AQDATE": null, "PUDATE": null, "REMARK": "Sawah", "KODLCO": null, "SRS_ID": null, "LCODE": "FA0060", "METADATA": null, "TNMSWH": 0, "SHAPE_Leng": 0.60695431597000005, "SHAPE_Area": 0.00097736111 }, "geometry": { "type": "MultiPolygon", "coordinates": [ [ [ [ 109.920840888282001, -7.4098270641919, 0.0 ], [ 109.920785294, -7.40981814172801, 0.0 ], [ 109.920735676291002, -7.409813430288721, 0.0 ], [ 109.920696239189994, -7.40978403941748, 0.0 ], [ 109.920645590492001, -7.40977733137652, 0.0 ], [ 109.920553187714006, -7.40974344832471, 0.0 ], [ 109.920531888566998, -7.409715094694801, 0.0 ], [ 109.920543954365002, -7.40967036820084, 0.0 ], [ 109.920452921012, -7.40963232683343, 0.0 ], [ 109.920319976661006, -7.40954295982104, 0.0 ], [ 109.920308913998994, -7.40952781444837, 0.0 ], [ 109.920319113971004, -7.409490096122901, 0.0 ], [ 109.920336438077001, -7.40943057327438, 0.0 ], [ 109.920350553934, -7.409347617999929, 0.0 ], [ 109.920345993897001, -7.409299127299529, 0.0 ], [ 109.920298359745999, -7.40923375719533, 0.0 ], [ 109.920267676338, -7.409171803746811, 0.0 ], [ 109.920258617754001, -7.40913682098336, 0.0 ], [ 109.920252339026007, -7.40913212380682, 0.0 ], [ 109.920198204204993, -7.40909143599934, 0.0 ], [ 109.920297947967995, -7.40892485672836, 0.0 ], [ 109.920223683732999, -7.408871975396219, 0.0 ], [ 109.920212876543999, -7.40882249788701, 0.0 ], [ 109.920190174349997, -7.40870254127532, 0.0 ], [ 109.920180132271, -7.40867601801098, 0.0 ], [ 109.920168716608003, -7.408645866815531, 0.0 ], [ 109.920155576146996, -7.40861953547337, 0.0 ], [ 109.920106708069, -7.4085175772271, 0.0 ], [ 109.920085108161999, -7.40847832906249, 0.0 ], [ 109.919959044025006, -7.40841685887492, 0.0 ], [ 109.919899838099809, -7.40821262136189, 0.0 ], [ 109.919887066000044, -7.408056877, 0.0 ], [ 109.919878039000096, -7.407897889999981, 0.0 ], [ 109.919961096000037, -7.407844922999951, 0.0 ], [ 109.920223046000046, -7.40786888799998, 0.0 ], [ 109.920413086000053, -7.407908864, 0.0 ], [ 109.920669089000086, -7.407858936999956, 0.0 ], [ 109.921125215437542, -7.407741866603443, 0.0 ], [ 109.921211977696998, -7.407730695894189, 0.0 ], [ 109.921238382788161, -7.40770770808525, 0.0 ], [ 109.921310090000105, -7.407678919999983, 0.0 ], [ 109.921347055000055, -7.407562904999976, 0.0 ], [ 109.921139104000076, -7.407053946999964, 0.0 ], [ 109.921126097000069, -7.406872887, 0.0 ], [ 109.921178052000101, -7.406767939999925, 0.0 ], [ 109.921440046000015, -7.406711878999905, 0.0 ], [ 109.921601375935879, -7.406743004801631, 0.0 ], [ 109.921677138335994, -7.40676586803855, 0.0 ], [ 109.921688195966411, -7.406759755214636, 0.0 ], [ 109.922197098000041, -7.406857939, 0.0 ], [ 109.922323095000081, -7.406873886999987, 0.0 ], [ 109.922382054000067, -7.406837949999945, 0.0 ], [ 109.922373067000123, -7.406723903999923, 0.0 ], [ 109.92212905400001, -7.406451950999982, 0.0 ], [ 109.922057047000095, -7.406353936999954, 0.0 ], [ 109.922090066000067, -7.406200929, 0.0 ], [ 109.922193063000066, -7.406089865999954, 0.0 ], [ 109.922298064000046, -7.406044908999965, 0.0 ], [ 109.922657055000087, -7.406409915999967, 0.0 ], [ 109.922863111000083, -7.406560879999935, 0.0 ], [ 109.922916290507914, -7.406518746421447, 0.0 ], [ 109.922980017954004, -7.40653409265879, 0.0 ], [ 109.923068422471005, -7.40648543640679, 0.0 ], [ 109.923091704282996, -7.40638316231502, 0.0 ], [ 109.923048414167994, -7.406248661328211, 0.0 ], [ 109.922956462802588, -7.406131103743706, 0.0 ], [ 109.92291704900002, -7.406038900999912, 0.0 ], [ 109.922885040000025, -7.405990898999937, 0.0 ], [ 109.922811069000034, -7.405809871999969, 0.0 ], [ 109.92279805900003, -7.405567865999929, 0.0 ], [ 109.922754355621549, -7.405558318484175, 0.0 ], [ 109.922794259903995, -7.40543330428809, 0.0 ], [ 109.922975923641005, -7.405335286706681, 0.0 ], [ 109.923169259071003, -7.40537539217382, 0.0 ], [ 109.923362668663998, -7.405493197946691, 0.0 ], [ 109.923486853962999, -7.40562833624279, 0.0 ], [ 109.923613759676002, -7.40559080421836, 0.0 ], [ 109.923746347386995, -7.40546117728654, 0.0 ], [ 109.924022233158993, -7.405368468251641, 0.0 ], [ 109.924240067726004, -7.40527406354315, 0.0 ], [ 109.924426981175003, -7.40512896661532, 0.0 ], [ 109.924510762892993, -7.40500548865708, 0.0 ], [ 109.924533418526252, -7.404936055178463, 0.0 ], [ 109.924586105000088, -7.404942927, 0.0 ], [ 109.924960081000037, -7.404673913999948, 0.0 ], [ 109.925098112000086, -7.404594943999898, 0.0 ], [ 109.925145094000072, -7.404567929999972, 0.0 ], [ 109.925481111000067, -7.40448690799993, 0.0 ], [ 109.92602208200006, -7.404455930999942, 0.0 ], [ 109.926346085000048, -7.404429946999924, 0.0 ], [ 109.926551068000052, -7.404283862999916, 0.0 ], [ 109.926587086000012, -7.404249950999953, 0.0 ], [ 109.927181109000045, -7.403566870999923, 0.0 ], [ 109.927337044000069, -7.40359093799996, 0.0 ], [ 109.927458109000042, -7.403544931999972, 0.0 ], [ 109.927576048000034, -7.40340189399995, 0.0 ], [ 109.927758038000078, -7.403123915999954, 0.0 ], [ 109.927797069000022, -7.403079882999952, 0.0 ], [ 109.927956113000036, -7.403115892, 0.0 ], [ 109.928099074000059, -7.402726869999965, 0.0 ], [ 109.92821910900004, -7.402519905999982, 0.0 ], [ 109.928260095000056, -7.402470905000014, 0.0 ], [ 109.928953094000107, -7.402440922999931, 0.0 ], [ 109.929180061000054, -7.402409908999941, 0.0 ], [ 109.929317049000105, -7.402297932999913, 0.0 ], [ 109.929417109000042, -7.402101952999951, 0.0 ], [ 109.929459067000053, -7.401834939999974, 0.0 ], [ 109.929445093000041, -7.40155793699997, 0.0 ], [ 109.929445057000038, -7.401169925999929, 0.0 ], [ 109.929482046, -7.401011953, 0.0 ], [ 109.929618043000062, -7.400938946999913, 0.0 ], [ 109.929843083000023, -7.400869948999977, 0.0 ], [ 109.92999905800005, -7.400752863999971, 0.0 ], [ 109.930107054000104, -7.400549939999967, 0.0 ], [ 109.930134047000124, -7.400198887999965, 0.0 ], [ 109.93011209000008, -7.399699872999976, 0.0 ], [ 109.930160087000047, -7.39956190999993, 0.0 ], [ 109.93020007300008, -7.399523937999986, 0.0 ], [ 109.930397685088067, -7.399088735862361, 0.0 ], [ 109.930644202059995, -7.398808964936721, 0.0 ], [ 109.930807452042998, -7.398346260286301, 0.0 ], [ 109.930889998599994, -7.39807082255957, 0.0 ], [ 109.930916687543018, -7.39798176797318, 0.0 ], [ 109.931003089000086, -7.397859885999969, 0.0 ], [ 109.931065100000055, -7.397920890999954, 0.0 ], [ 109.93129805600006, -7.398069925999939, 0.0 ], [ 109.931666093000047, -7.398277880999915, 0.0 ], [ 109.931949062000101, -7.398506879999944, 0.0 ], [ 109.932356060000117, -7.398916934999944, 0.0 ], [ 109.932388086000103, -7.398957883999957, 0.0 ], [ 109.932508070000083, -7.399174917999973, 0.0 ], [ 109.932603105000041, -7.399327872999928, 0.0 ], [ 109.932852044000029, -7.39960390199994, 0.0 ], [ 109.932907087000061, -7.399797903, 0.0 ], [ 109.932863060000059, -7.39996291299998, 0.0 ], [ 109.932856077000096, -7.400132894000011, 0.0 ], [ 109.932934110000076, -7.400303892999949, 0.0 ], [ 109.933059108000108, -7.400392897999941, 0.0 ], [ 109.933281062000091, -7.400395871999921, 0.0 ], [ 109.933600081000108, -7.400328906999976, 0.0 ], [ 109.933702085000021, -7.400255907999975, 0.0 ], [ 109.933687043000106, -7.40017295199995, 0.0 ], [ 109.933499082000097, -7.399672907999966, 0.0 ], [ 109.933190106000026, -7.398917937999938, 0.0 ], [ 109.933268061000078, -7.398343929999962, 0.0 ], [ 109.933369107, -7.39823394400001, 0.0 ], [ 109.933810070000078, -7.39812694199995, 0.0 ], [ 109.934099096000097, -7.398260918999933, 0.0 ], [ 109.934434049000103, -7.398495919000014, 0.0 ], [ 109.935231057000053, -7.399143906999983, 0.0 ], [ 109.935386074000093, -7.399269875999925, 0.0 ], [ 109.93592905400007, -7.399458894999933, 0.0 ], [ 109.93728605200009, -7.399745884999964, 0.0 ], [ 109.937818041000043, -7.399782870999916, 0.0 ], [ 109.937859063000062, -7.399779894999936, 0.0 ], [ 109.938227108000049, -7.399767932000012, 0.0 ], [ 109.938492044000043, -7.399666925999915, 0.0 ], [ 109.938845119070734, -7.399644869833357, 0.0 ], [ 109.938828836499994, -7.39966929449933, 0.0 ], [ 109.938840926333, -7.399675018166, 0.0 ], [ 109.938860880378911, -7.399643885243769, 0.0 ], [ 109.939917108000088, -7.399577903999921, 0.0 ], [ 109.940014049000112, -7.399590884999929, 0.0 ], [ 109.94024504100004, -7.399562949999927, 0.0 ], [ 109.940481053000028, -7.399591904999925, 0.0 ], [ 109.940561053000081, -7.399596887999982, 0.0 ], [ 109.941342088000042, -7.399648928999936, 0.0 ], [ 109.941456078000058, -7.399655890999979, 0.0 ], [ 109.941440102000072, -7.399399951999941, 0.0 ], [ 109.941392071000095, -7.399365928999968, 0.0 ], [ 109.94135522436639, -7.399094191574505, 0.0 ], [ 109.941413381383001, -7.39908088723257, 0.0 ], [ 109.941461334383007, -7.39925539640842, 0.0 ], [ 109.941495028134995, -7.399476951626699, 0.0 ], [ 109.941530608950004, -7.39955583834932, 0.0 ], [ 109.941568785548, -7.399610182000191, 0.0 ], [ 109.941552150682995, -7.3996378333758, 0.0 ], [ 109.941501341090998, -7.39966051009361, 0.0 ], [ 109.941485776058997, -7.39970650923403, 0.0 ], [ 109.941491011845002, -7.399872415218371, 0.0 ], [ 109.941539771145997, -7.399951275869729, 0.0 ], [ 109.941634201916997, -7.40006347583712, 0.0 ], [ 109.941774213760993, -7.400117966318859, 0.0 ], [ 109.941898014840007, -7.40016614776858, 0.0 ], [ 109.941941873198999, -7.400235690995079, 0.0 ], [ 109.941927791436996, -7.40035305678309, 0.0 ], [ 109.941894453219007, -7.40048359315023, 0.0 ], [ 109.941798184842995, -7.40063078532608, 0.0 ], [ 109.941684706757002, -7.40074217972334, 0.0 ], [ 109.941488957763994, -7.40087633990271, 0.0 ], [ 109.94135418274, -7.40098876690519, 0.0 ], [ 109.941138260575997, -7.40108913442448, 0.0 ], [ 109.940887394808001, -7.40112404331061, 0.0 ], [ 109.940614579599, -7.401125324813679, 0.0 ], [ 109.940449286264993, -7.40114470970416, 0.0 ], [ 109.940206905593001, -7.40115506575953, 0.0 ], [ 109.939880907494, -7.4011220266976, 0.0 ], [ 109.939667140143996, -7.40110036179806, 0.0 ], [ 109.939488392163, -7.401097122694, 0.0 ], [ 109.939364694416994, -7.401130629277459, 0.0 ], [ 109.939280576946004, -7.40119141141787, 0.0 ], [ 109.939236040755006, -7.40128048088158, 0.0 ], [ 109.939210414130002, -7.401412591698911, 0.0 ], [ 109.939228749533996, -7.40149350592852, 0.0 ], [ 109.939226823248006, -7.40159669650721, 0.0 ], [ 109.939192434874002, -7.401691825834611, 0.0 ], [ 109.939124624434001, -7.40183352418058, 0.0 ], [ 109.939049583390997, -7.40184270302583, 0.0 ], [ 109.938889302679002, -7.4018034064859, 0.0 ], [ 109.938783822044002, -7.40179845209309, 0.0 ], [ 109.938609400599006, -7.40181784525481, 0.0 ], [ 109.938468896466006, -7.40185575106938, 0.0 ], [ 109.938279265109998, -7.401878194035861, 0.0 ], [ 109.938128525989001, -7.401896034028031, 0.0 ], [ 109.938030874787003, -7.401965440561041, 0.0 ], [ 109.937986350247002, -7.40206664970247, 0.0 ], [ 109.937934594208002, -7.402227810358861, 0.0 ], [ 109.937946127984006, -7.40241221014349, 0.0 ], [ 109.938040685908007, -7.40260486523832, 0.0 ], [ 109.938082525371001, -7.40272864800302, 0.0 ], [ 109.938084655571004, -7.40282506611657, 0.0 ], [ 109.938008478659, -7.40296215924502, 0.0 ], [ 109.937912773891995, -7.40308160115006, 0.0 ], [ 109.937834448713005, -7.403104007022219, 0.0 ], [ 109.937721515662005, -7.40311325257681, 0.0 ], [ 109.937585127142995, -7.40306872876387, 0.0 ], [ 109.937454816645996, -7.40299679534733, 0.0 ], [ 109.937303159809005, -7.40294619676297, 0.0 ], [ 109.937182298004004, -7.40284317601086, 0.0 ], [ 109.937086279659994, -7.402780138324159, 0.0 ], [ 109.936972945750995, -7.40275581138035, 0.0 ], [ 109.936821357285993, -7.40277182535044, 0.0 ], [ 109.936733648355997, -7.40280960527616, 0.0 ], [ 109.936667719438006, -7.40285119713258, 0.0 ], [ 109.936631909645996, -7.40290937033787, 0.0 ], [ 109.936652463493999, -7.40296876604202, 0.0 ], [ 109.936763306028993, -7.40300826797974, 0.0 ], [ 109.936848151188997, -7.4030175305799, 0.0 ], [ 109.936934245041002, -7.40308487003161, 0.0 ], [ 109.937013219212005, -7.40320227357085, 0.0 ], [ 109.937028303893001, -7.403334031635021, 0.0 ], [ 109.936931292742997, -7.403537433050619, 0.0 ], [ 109.936797512702995, -7.40369029263468, 0.0 ], [ 109.936630559638004, -7.40384094622941, 0.0 ], [ 109.936310569930001, -7.40404421158965, 0.0 ], [ 109.935887069952997, -7.40419732421977, 0.0 ], [ 109.935595001289002, -7.404286825994431, 0.0 ], [ 109.935575659034001, -7.404332948815269, 0.0 ], [ 109.935583126032, -7.40452405228968, 0.0 ], [ 109.935524090791006, -7.40461967898775, 0.0 ], [ 109.935603831711006, -7.4045817559107, 0.0 ], [ 109.935652010045999, -7.40457415207615, 0.0 ], [ 109.935772955716999, -7.4045102239065, 0.0 ], [ 109.935911283555996, -7.4044521622364, 0.0 ], [ 109.935956216392, -7.404504228401789, 0.0 ], [ 109.935888664890996, -7.40458968890334, 0.0 ], [ 109.935862178725003, -7.40465859007053, 0.0 ], [ 109.935852723893007, -7.40470853223732, 0.0 ], [ 109.935873895561997, -7.40475795440332, 0.0 ], [ 109.935996597735993, -7.404807769733379, 0.0 ], [ 109.936101796241005, -7.40483678173058, 0.0 ], [ 109.936147345744004, -7.40484829422939, 0.0 ], [ 109.936240584583004, -7.404890934893551, 0.0 ], [ 109.936319860918999, -7.40485526305825, 0.0 ], [ 109.936325728523997, -7.40486404980688, 0.0 ], [ 109.936313572916006, -7.40489716075443, 0.0 ], [ 109.936286129568998, -7.405016432202121, 0.0 ], [ 109.936300047687993, -7.40508845315655, 0.0 ], [ 109.936318613357003, -7.40515042674742, 0.0 ], [ 109.936335312021995, -7.40530454490149, 0.0 ], [ 109.936294247700999, -7.40551576787055, 0.0 ], [ 109.936272051703995, -7.40555736430699, 0.0 ], [ 109.936235615664998, -7.405603409523179, 0.0 ], [ 109.936179482680004, -7.405647797055349, 0.0 ], [ 109.936189837708994, -7.40568544124511, 0.0 ], [ 109.936220459763007, -7.405732846998921, 0.0 ], [ 109.936225402513003, -7.40574049882934, 0.0 ], [ 109.936217214104005, -7.40574450905884, 0.0 ], [ 109.936066036932004, -7.40581854722924, 0.0 ], [ 109.935989156763, -7.405879563897751, 0.0 ], [ 109.935884558593997, -7.405964440733591, 0.0 ], [ 109.935829145425004, -7.4060130572349, 0.0 ], [ 109.935756368423995, -7.40609450256993, 0.0 ], [ 109.935712752922996, -7.406145490237601, 0.0 ], [ 109.935670251255999, -7.40617656857196, 0.0 ], [ 109.935631744253996, -7.40618686507293, 0.0 ], [ 109.935539147249003, -7.40615570407539, 0.0 ], [ 109.935474873244999, -7.406146675243741, 0.0 ], [ 109.935340385071996, -7.40611593024727, 0.0 ], [ 109.935286681210002, -7.40613372566481, 0.0 ], [ 109.935185505736996, -7.40627400952878, 0.0 ], [ 109.935156366446662, -7.406302560925114, 0.0 ], [ 109.934974112000106, -7.406344875999915, 0.0 ], [ 109.934982549100638, -7.406372583619875, 0.0 ], [ 109.934966500692994, -7.40637569149202, 0.0 ], [ 109.934898918509006, -7.40637111666535, 0.0 ], [ 109.934761549730993, -7.406370811089819, 0.0 ], [ 109.934616499040999, -7.40641081045436, 0.0 ], [ 109.934578913631995, -7.40653546622853, 0.0 ], [ 109.934491564625006, -7.406601515541551, 0.0 ], [ 109.934378411446005, -7.40663852109616, 0.0 ], [ 109.934232723323007, -7.406639781262131, 0.0 ], [ 109.934025816616995, -7.40646011094467, 0.0 ], [ 109.933887877003002, -7.40636297633541, 0.0 ], [ 109.933686174444006, -7.40628162929394, 0.0 ], [ 109.933528512722006, -7.40630323417258, 0.0 ], [ 109.933424676268004, -7.40639629099467, 0.0 ], [ 109.933283293025994, -7.40657340205399, 0.0 ], [ 109.933120374368997, -7.406716569403439, 0.0 ], [ 109.932903619740998, -7.40677755892707, 0.0 ], [ 109.932697572538004, -7.406793847757029, 0.0 ], [ 109.932570412138006, -7.40685653764527, 0.0 ], [ 109.932432537213998, -7.406956777789251, 0.0 ], [ 109.932400013888994, -7.40709327369985, 0.0 ], [ 109.932384071886005, -7.40728277587462, 0.0 ], [ 109.932235300534003, -7.40743005245653, 0.0 ], [ 109.932052669033993, -7.40757145098268, 0.0 ], [ 109.931881960710996, -7.407659521694441, 0.0 ], [ 109.931622164504006, -7.40768301260446, 0.0 ], [ 109.931351573582006, -7.40766182352341, 0.0 ], [ 109.931052347741002, -7.40767641423425, 0.0 ], [ 109.930934146065994, -7.40773909506018, 0.0 ], [ 109.930884130457002, -7.407900028432399, 0.0 ], [ 109.930749345346001, -7.4080295929783, 0.0 ], [ 109.930659986920006, -7.40827100693238, 0.0 ], [ 109.930529314915006, -7.408408779342359, 0.0 ], [ 109.930334139449997, -7.408550189343289, 0.0 ], [ 109.930103979582995, -7.4087169462882, 0.0 ], [ 109.929936454737003, -7.40884589250009, 0.0 ], [ 109.929809410171003, -7.40884265038726, 0.0 ], [ 109.929625069840995, -7.40888208411574, 0.0 ], [ 109.929424444695996, -7.40885988652125, 0.0 ], [ 109.929241066752994, -7.40873220178561, 0.0 ], [ 109.928880696834, -7.408315859256939, 0.0 ], [ 109.928705115124998, -7.40805709170691, 0.0 ], [ 109.928612687759113, -7.407992136722929, 0.0 ], [ 109.928660048000012, -7.407994888999925, 0.0 ], [ 109.928825113000087, -7.40810587499996, 0.0 ], [ 109.928973048000074, -7.408318908999911, 0.0 ], [ 109.929059058000078, -7.40843494999992, 0.0 ], [ 109.929364097000089, -7.408683898999913, 0.0 ], [ 109.929565081000121, -7.408801932999909, 0.0 ], [ 109.929689094000068, -7.408835869999963, 0.0 ], [ 109.929911056000051, -7.408774913999894, 0.0 ], [ 109.930153074000089, -7.40860694499994, 0.0 ], [ 109.930365074000051, -7.40837090499995, 0.0 ], [ 109.930527048000044, -7.408152919999944, 0.0 ], [ 109.930718068000033, -7.407910951, 0.0 ], [ 109.930953068000022, -7.407585896999924, 0.0 ], [ 109.930974047000078, -7.407560899999988, 0.0 ], [ 109.93133909400008, -7.407523889999945, 0.0 ], [ 109.931303082000028, -7.407462946999965, 0.0 ], [ 109.931248091000015, -7.40718593599996, 0.0 ], [ 109.931454093000099, -7.407050883999977, 0.0 ], [ 109.931783043000038, -7.406832937999974, 0.0 ], [ 109.932432106000107, -7.406343942000015, 0.0 ], [ 109.932715094000073, -7.406100926999981, 0.0 ], [ 109.932801102000084, -7.406000942999968, 0.0 ], [ 109.932805069000054, -7.405997877999981, 0.0 ], [ 109.932814067, -7.406294943999958, 0.0 ], [ 109.934017057000062, -7.405979893999914, 0.0 ], [ 109.933880069000097, -7.405469932999909, 0.0 ], [ 109.933964076000024, -7.405362891000022, 0.0 ], [ 109.934088071000076, -7.405185865999941, 0.0 ], [ 109.93417706200006, -7.405118893, 0.0 ], [ 109.934326111000047, -7.40514891, 0.0 ], [ 109.934377068000089, -7.405177877, 0.0 ], [ 109.934619043000041, -7.404870921999906, 0.0 ], [ 109.934454110000075, -7.404735886000013, 0.0 ], [ 109.934286071000116, -7.404866870000015, 0.0 ], [ 109.933933045000032, -7.404751909999918, 0.0 ], [ 109.933909106, -7.404360947999988, 0.0 ], [ 109.933891092000025, -7.404053913999986, 0.0 ], [ 109.933891048000106, -7.404040892999975, 0.0 ], [ 109.933942108000068, -7.403186869000011, 0.0 ], [ 109.933869111000078, -7.403344933999945, 0.0 ], [ 109.933656052000032, -7.403681887999936, 0.0 ], [ 109.933012072000039, -7.404575908000011, 0.0 ], [ 109.932300100000106, -7.405409903999915, 0.0 ], [ 109.931918095000114, -7.405756940999941, 0.0 ], [ 109.931580050000036, -7.405966907999906, 0.0 ], [ 109.931071040000106, -7.406219869999964, 0.0 ], [ 109.930988046000081, -7.406246887999979, 0.0 ], [ 109.930929047000078, -7.406175943999971, 0.0 ], [ 109.930935065000043, -7.405910924999981, 0.0 ], [ 109.930933079000056, -7.405742911999935, 0.0 ], [ 109.930786094000069, -7.405414951999978, 0.0 ], [ 109.930131082000045, -7.404931868999975, 0.0 ], [ 109.930062069000115, -7.404861894999959, 0.0 ], [ 109.930035090000018, -7.404834883999944, 0.0 ], [ 109.930023059000078, -7.404711877999981, 0.0 ], [ 109.930107105000019, -7.404464949999978, 0.0 ], [ 109.931075052000082, -7.403716933999904, 0.0 ], [ 109.931933048000104, -7.403051931999949, 0.0 ], [ 109.93201305900007, -7.402928874999892, 0.0 ], [ 109.931862043000095, -7.402567900999957, 0.0 ], [ 109.931796069000058, -7.402445941999902, 0.0 ], [ 109.93179407100007, -7.402375947999973, 0.0 ], [ 109.93192806100005, -7.402329881999981, 0.0 ], [ 109.932197092000109, -7.402297883, 0.0 ], [ 109.932419043, -7.402177878999927, 0.0 ], [ 109.932588068000129, -7.402008919999981, 0.0 ], [ 109.932705045000034, -7.401736932999947, 0.0 ], [ 109.932761041000049, -7.401502866999943, 0.0 ], [ 109.932694064000103, -7.401176907999973, 0.0 ], [ 109.93262408, -7.401106932999957, 0.0 ], [ 109.932067039000088, -7.401110931999932, 0.0 ], [ 109.931892094, -7.401100928, 0.0 ], [ 109.931753063000045, -7.401037930999932, 0.0 ], [ 109.931714091000018, -7.400933939999943, 0.0 ], [ 109.931793071000072, -7.400493943999953, 0.0 ], [ 109.931813112000043, -7.400423912999932, 0.0 ], [ 109.931812076000043, -7.400419931999958, 0.0 ], [ 109.93167404800009, -7.400374930999964, 0.0 ], [ 109.931436083000023, -7.400443896999986, 0.0 ], [ 109.931253044000073, -7.400537950999952, 0.0 ], [ 109.931070048000024, -7.400706876999985, 0.0 ], [ 109.930926103000019, -7.400977893999938, 0.0 ], [ 109.930889103000069, -7.401140932000017, 0.0 ], [ 109.930937096000036, -7.40137687399991, 0.0 ], [ 109.931011047000112, -7.401629876999971, 0.0 ], [ 109.931007102000052, -7.401902949, 0.0 ], [ 109.930695112000095, -7.402431905999984, 0.0 ], [ 109.930272040000077, -7.402986908999898, 0.0 ], [ 109.930008107000091, -7.403321930999907, 0.0 ], [ 109.929750101000053, -7.40352187199993, 0.0 ], [ 109.929699079000017, -7.403550865999931, 0.0 ], [ 109.929699079000017, -7.403829914999926, 0.0 ], [ 109.929643051000085, -7.404044899999951, 0.0 ], [ 109.929452039000083, -7.404283883999918, 0.0 ], [ 109.929407086000097, -7.404274914999975, 0.0 ], [ 109.929269076000054, -7.404283897, 0.0 ], [ 109.929007078000041, -7.404372876, 0.0 ], [ 109.928897108000086, -7.404464935999977, 0.0 ], [ 109.928847096000126, -7.40457088299995, 0.0 ], [ 109.928914052000067, -7.40478091899992, 0.0 ], [ 109.929259073000111, -7.405456946999989, 0.0 ], [ 109.929400088000051, -7.405843939999945, 0.0 ], [ 109.929359060000124, -7.406096938999918, 0.0 ], [ 109.929263104000086, -7.406324937999953, 0.0 ], [ 109.928800082000052, -7.406838880999933, 0.0 ], [ 109.928491063000067, -7.407062932, 0.0 ], [ 109.928212090000073, -7.407250884999916, 0.0 ], [ 109.927663060000043, -7.407646887999908, 0.0 ], [ 109.927376098000096, -7.407708950999981, 0.0 ], [ 109.926770078000047, -7.407820881, 0.0 ], [ 109.926487083000083, -7.407971930999979, 0.0 ], [ 109.926244104000048, -7.408227879000018, 0.0 ], [ 109.925510153834921, -7.409090412990684, 0.0 ], [ 109.925494702175996, -7.40906343613858, 0.0 ], [ 109.925440891506994, -7.4090295809687, 0.0 ], [ 109.925425057674005, -7.40900193613438, 0.0 ], [ 109.925405147177003, -7.4089295669664, 0.0 ], [ 109.925366493268996, -7.40896265124949, 0.0 ], [ 109.925297807719005, -7.40905252485305, 0.0 ], [ 109.925244635320993, -7.4091220997908, 0.0 ], [ 109.925191552146998, -7.40919155795453, 0.0 ], [ 109.925120692137, -7.40927127245059, 0.0 ], [ 109.925096142634004, -7.40930024311589, 0.0 ], [ 109.925066353630996, -7.40931412661418, 0.0 ], [ 109.925027126961993, -7.40930784394522, 0.0 ], [ 109.924932692875004, -7.40938922416176, 0.0 ], [ 109.924798466656, -7.40946176363415, 0.0 ], [ 109.924448040667997, -7.40954966220003, 0.0 ], [ 109.924050093499005, -7.40965685593575, 0.0 ], [ 109.923828388765997, -7.40974443171205, 0.0 ], [ 109.923552675154994, -7.409870226422479, 0.0 ], [ 109.923409663631006, -7.40995118458098, 0.0 ], [ 109.923093767503005, -7.40998830215525, 0.0 ], [ 109.922716507079002, -7.41008329846649, 0.0 ], [ 109.922459278532003, -7.410128310925349, 0.0 ], [ 109.922263186506001, -7.41020982389748, 0.0 ], [ 109.922007155233004, -7.41026456021282, 0.0 ], [ 109.921711804348007, -7.41026313725194, 0.0 ], [ 109.921522581949006, -7.410209144674481, 0.0 ], [ 109.921430732502998, -7.410178347054189, 0.0 ], [ 109.921293985004993, -7.41008901762437, 0.0 ], [ 109.921201029466999, -7.41001775151149, 0.0 ], [ 109.920982131773997, -7.40999239896444, 0.0 ], [ 109.920977505598003, -7.40991290356366, 0.0 ], [ 109.920948454108995, -7.40986679351197, 0.0 ], [ 109.920922396639, -7.409841706159621, 0.0 ], [ 109.920876386013006, -7.409826290918851, 0.0 ], [ 109.920840888282001, -7.4098270641919, 0.0 ] ], [ [ 109.932208016136997, -7.40702346303834, 0.0 ], [ 109.932173275305004, -7.4070636740399, 0.0 ], [ 109.932138056471999, -7.40708075604155, 0.0 ], [ 109.932047779138998, -7.40711244421249, 0.0 ], [ 109.932031641804997, -7.40711113987994, 0.0 ], [ 109.931997566470997, -7.40710159504828, 0.0 ], [ 109.931967583971002, -7.407103399549731, 0.0 ], [ 109.931974717881005, -7.40711713391284, 0.0 ], [ 109.931984287122006, -7.407153107816949, 0.0 ], [ 109.932001504550996, -7.407217833746279, 0.0 ], [ 109.932032911556007, -7.40727381774656, 0.0 ], [ 109.932092498398006, -7.407378872747071, 0.0 ], [ 109.932173621580006, -7.40729392024826, 0.0 ], [ 109.932239477259003, -7.40722594224922, 0.0 ], [ 109.932262981264003, -7.40718999658292, 0.0 ], [ 109.932250455928994, -7.40711148408293, 0.0 ], [ 109.932246425095997, -7.40700288958311, 0.0 ], [ 109.932258234800997, -7.40696728236941, 0.0 ], [ 109.932235539969, -7.40699279020377, 0.0 ], [ 109.932208016136997, -7.40702346303834, 0.0 ] ], [ [ 109.935769060000069, -7.40281091, 0.0 ], [ 109.935999068000086, -7.40163594099994, 0.0 ], [ 109.935497058000038, -7.401433908999921, 0.0 ], [ 109.935115056000043, -7.40171991299996, 0.0 ], [ 109.93463306700005, -7.401642893999982, 0.0 ], [ 109.934704087000057, -7.401436896, 0.0 ], [ 109.934113073, -7.401276877999985, 0.0 ], [ 109.933919092000039, -7.401944921999926, 0.0 ], [ 109.93448707500005, -7.402051896999984, 0.0 ], [ 109.934809075000047, -7.402112888999968, 0.0 ], [ 109.93494509300011, -7.402497879999936, 0.0 ], [ 109.935769060000069, -7.40281091, 0.0 ] ] ], [ [ [ 109.924544867555994, -7.40450408664395, 0.0 ], [ 109.924512021797995, -7.4043701565446, 0.0 ], [ 109.924497968823005, -7.40423788200225, 0.0 ], [ 109.924542126069994, -7.404060450298811, 0.0 ], [ 109.924545599466001, -7.40385740038329, 0.0 ], [ 109.924510587469996, -7.40372530714604, 0.0 ], [ 109.924530959969999, -7.403564413709649, 0.0 ], [ 109.924659906589994, -7.40348531629722, 0.0 ], [ 109.924841724507999, -7.40349976782967, 0.0 ], [ 109.924981007493997, -7.40356528037741, 0.0 ], [ 109.925015454062375, -7.403588726405427, 0.0 ], [ 109.924775064000087, -7.403547866999949, 0.0 ], [ 109.924653048000039, -7.403615933999985, 0.0 ], [ 109.924593070000043, -7.404072882999957, 0.0 ], [ 109.924549846729761, -7.404515591934647, 0.0 ], [ 109.924544867555994, -7.40450408664395, 0.0 ] ] ], [ [ [ 109.925350454723997, -7.40362365203722, 0.0 ], [ 109.925374614405001, -7.40353842115027, 0.0 ], [ 109.925321409557, -7.40342908360095, 0.0 ], [ 109.925201055621997, -7.403248216588209, 0.0 ], [ 109.925142533951998, -7.40310002184669, 0.0 ], [ 109.925143588300003, -7.40297986762978, 0.0 ], [ 109.925182062024007, -7.4028561780435, 0.0 ], [ 109.925331671649005, -7.402752793009471, 0.0 ], [ 109.925552293243996, -7.402715276298049, 0.0 ], [ 109.925771712415994, -7.4026779639452, 0.0 ], [ 109.925841024859267, -7.402666177285467, 0.0 ], [ 109.925312085000115, -7.40286492399993, 0.0 ], [ 109.925325054000041, -7.403062893999968, 0.0 ], [ 109.925403059000089, -7.40336790199998, 0.0 ], [ 109.925408105000074, -7.403628878, 0.0 ], [ 109.925340083000037, -7.403643904, 0.0 ], [ 109.925309061557215, -7.40363863124579, 0.0 ], [ 109.925350454723997, -7.40362365203722, 0.0 ] ] ], [ [ [ 109.926133619816994, -7.40246850106838, 0.0 ], [ 109.926070890822999, -7.40233226573251, 0.0 ], [ 109.926025992278994, -7.40223475465123, 0.0 ], [ 109.926076319328004, -7.40210508621356, 0.0 ], [ 109.926207990815001, -7.402020473942519, 0.0 ], [ 109.926350987644994, -7.40196964529215, 0.0 ], [ 109.926493487876371, -7.401954700746068, 0.0 ], [ 109.926352077000018, -7.401983896999953, 0.0 ], [ 109.926221063000099, -7.402127897999966, 0.0 ], [ 109.926219042000113, -7.402221933999931, 0.0 ], [ 109.926204088000119, -7.40247391, 0.0 ], [ 109.926130778806268, -7.402520408681543, 0.0 ], [ 109.926133619816994, -7.40246850106838, 0.0 ] ] ], [ [ [ 109.926920003690995, -7.401517933541319, 0.0 ], [ 109.926910962210002, -7.4010458326413, 0.0 ], [ 109.926948453069997, -7.40075949094607, 0.0 ], [ 109.927045858677005, -7.40050177673223, 0.0 ], [ 109.92723481164694, -7.400204527810286, 0.0 ], [ 109.927130079000079, -7.400445936999978, 0.0 ], [ 109.92697208900006, -7.400808880999898, 0.0 ], [ 109.92691404100006, -7.401086885999986, 0.0 ], [ 109.926927056000068, -7.401327897999943, 0.0 ], [ 109.926948059000026, -7.401539902999987, 0.0 ], [ 109.926892094000024, -7.401728934999907, 0.0 ], [ 109.926891384710288, -7.401731062396167, 0.0 ], [ 109.926920003690995, -7.401517933541319, 0.0 ] ] ], [ [ [ 109.928497869598516, -7.407990494572492, 0.0 ], [ 109.928510049000039, -7.407986932999977, 0.0 ], [ 109.928521178810186, -7.407986875629817, 0.0 ], [ 109.928497869598516, -7.407990494572492, 0.0 ] ] ], [ [ [ 109.928391569614007, -7.40804951745841, 0.0 ], [ 109.928288330770016, -7.40807003395115, 0.0 ], [ 109.92831609100007, -7.408052927999931, 0.0 ], [ 109.928387064000077, -7.408022896999933, 0.0 ], [ 109.92847365952268, -7.407997574225838, 0.0 ], [ 109.928391569614007, -7.40804951745841, 0.0 ] ] ], [ [ [ 109.928142464846005, -7.40820165391824, 0.0 ], [ 109.928077316110006, -7.40848751588364, 0.0 ], [ 109.927998127951, -7.40864950247508, 0.0 ], [ 109.927863006918997, -7.4087791607885, 0.0 ], [ 109.927603384365995, -7.409257114803571, 0.0 ], [ 109.927403661990994, -7.409469344515201, 0.0 ], [ 109.927011609225005, -7.4097398611763, 0.0 ], [ 109.926891858141005, -7.409896967602789, 0.0 ], [ 109.926879283594999, -7.40996870981565, 0.0 ], [ 109.926669716041999, -7.40989573720888, 0.0 ], [ 109.926627671873007, -7.40989494203976, 0.0 ], [ 109.926539733867003, -7.40987817270127, 0.0 ], [ 109.926527545874748, -7.409872472584782, 0.0 ], [ 109.926528057000013, -7.40987193199989, 0.0 ], [ 109.927155069000023, -7.408989908999919, 0.0 ], [ 109.927607094000024, -7.408607871999928, 0.0 ], [ 109.927925078000044, -7.408384927999956, 0.0 ], [ 109.928045088000033, -7.408219920999981, 0.0 ], [ 109.928244110589119, -7.408097282581869, 0.0 ], [ 109.928142464846005, -7.40820165391824, 0.0 ] ] ], [ [ [ 109.926387604078002, -7.41005761853136, 0.0 ], [ 109.926357224258027, -7.410052610994866, 0.0 ], [ 109.926438390917014, -7.409966766149197, 0.0 ], [ 109.926387604078002, -7.41005761853136, 0.0 ] ] ] ] } }
]
}
