{
"type": "FeatureCollection",
"name": "sungefay",
"crs": { "type": "name", "properties": { "name": "urn:ogc:def:crs:OGC:1.3:CRS84" } },
"features": [
{ "type": "Feature", "properties": { "NAMOBJ": "Kali Pahat", "TIPSNG": 0, "KLSSNG": 0, "FCODE": null, "REMARK": "Sungai Satu Garis", "SRS_ID": null, "LCODE": "DA0280", "METADATA": null, "NAMWS": null, "NAMDAS": null, "STATUS": null, "WMAX": 0.0, "DBTMAX": 0.0, "SLPRT": 0.0, "SHAPE_Leng": 0.05771935759 }, "geometry": { "type": "MultiLineString", "coordinates": [ [ [ 109.941440311000036, -7.399400351999967, 699.19999999999709 ], [ 109.941455433000044, -7.399655921999974, 697.911300000007031 ], [ 109.941455436000055, -7.399655976999979, 697.910999999992782 ], [ 109.941461623000023, -7.399759351999917, 697.389999999999418 ], [ 109.941489117846757, -7.399812400228648, 348.43661998378326 ] ], [ [ 109.941716171702879, -7.400095377231983, 347.168334546433528 ], [ 109.941798186000071, -7.400169851999953, 693.729999999995925 ], [ 109.941873874000038, -7.400301914999956, 693.482000000003609 ], [ 109.941874498000089, -7.40030303999996, 693.479999999995925 ], [ 109.94172349900002, -7.400599601999984, 693.130000000004657 ], [ 109.941440811000078, -7.400874413999896, 692.820000000006985 ], [ 109.941203061000039, -7.400992101999952, 691.759999999994761 ], [ 109.940808874000112, -7.401058851999968, 689.880000000004657 ], [ 109.940762499000087, -7.401055851999987, 689.830000000001746 ], [ 109.940439623000117, -7.401014227, 689.220000000001164 ], [ 109.940182373000056, -7.401007789999918, 688.869999999995343 ], [ 109.939586618991854, -7.401098902668903, 343.615917685742204 ] ], [ [ 109.939273319714346, -7.40120592540565, 343.011640037206973 ], [ 109.939202999000116, -7.401243914999915, 685.669999999998254 ], [ 109.93897618600009, -7.401700165, 684.05000000000291 ], [ 109.938363311000089, -7.401761914999964, 679.940000000002328 ], [ 109.937994249000013, -7.40190797699997, 679.479999999995925 ], [ 109.937875248000026, -7.402055226999986, 679.479999999995925 ], [ 109.937889061000106, -7.402250851999918, 679.330000000001746 ], [ 109.938007999, -7.402698663999933, 678.369999999995343 ], [ 109.937979498000047, -7.402764789999898, 678.059999999997672 ], [ 109.937871186000052, -7.402874288999987, 677.19999999999709 ], [ 109.937675686000034, -7.402959976999972, 676.389999999999418 ], [ 109.937473373000088, -7.402934226999973, 675.580000000001746 ], [ 109.937353999000067, -7.402857789999954, 674.820000000006985 ], [ 109.936978186000061, -7.402611226999982, 673.809999999997672 ], [ 109.936767311000025, -7.402677226999936, 673.149999999994179 ], [ 109.936614686, -7.402818539999904, 672.940000000002328 ], [ 109.936623061000077, -7.402980538999985, 672.539999999993597 ], [ 109.93671418600006, -7.403078413999912, 672.639999999999418 ], [ 109.936885248000095, -7.403263163999922, 672.440000000002328 ], [ 109.936790936000108, -7.403474789999935, 672.130000000004657 ], [ 109.936626623, -7.403717539999947, 671.880000000004657 ], [ 109.936420374000093, -7.40384960199995, 671.320000000006985 ], [ 109.936228999000065, -7.403902539999978, 669.899999999994179 ], [ 109.935816373000122, -7.404008163999924, 668.729999999995925 ], [ 109.935638874000091, -7.404104602, 668.179999999993015 ], [ 109.935498311000089, -7.404321163999976, 667.919999999998254 ], [ 109.935249498000118, -7.404822851999919, 667.009999999994761 ], [ 109.934925061000087, -7.405442413999934, 663.160000000003492 ], [ 109.934816186000049, -7.405403790000024, 662.850000000005821 ], [ 109.934539686000093, -7.405292164999937, 661.479999999995925 ], [ 109.93441780300013, -7.405313292, 660.51600000000326 ], [ 109.934341186000012, -7.405326601999944, 659.910000000003492 ], [ 109.934335186000041, -7.405328413999916, 659.809999999997672 ], [ 109.934289561000085, -7.405376851999927, 659.809999999997672 ], [ 109.934236998000088, -7.405494976999931, 659.05000000000291 ], [ 109.934239436000027, -7.40573685199996, 658.139999999999418 ], [ 109.934413686000056, -7.406011476999945, 657.529999999998836 ], [ 109.934518186000091, -7.406220226999986, 657.270000000004075 ], [ 109.934537123000055, -7.406379101999987, 656.610000000000582 ], [ 109.934399873000075, -7.406518976999925, 655.25 ], [ 109.934378873000114, -7.406519726999898, 655.054999999993015 ], [ 109.934295561000056, -7.406522851999979, 654.279999999998836 ], [ 109.934079061, -7.406388726999984, 653.570000000006985 ], [ 109.933661436000079, -7.406208039999955, 652.559999999997672 ], [ 109.933490248000041, -7.406264789999943, 651.94999999999709 ], [ 109.933319999000076, -7.406385976999934, 651.639999999999418 ], [ 109.933118873000041, -7.406551351999939, 651.539999999993597 ], [ 109.932861749000082, -7.406677414999978, 651.240000000005239 ], [ 109.932559186000091, -7.406765726999913, 650.529999999998836 ], [ 109.932453561000059, -7.406879351999988, 650.070000000006985 ], [ 109.932258560153414, -7.407162283755731, 324.437048184989237 ] ], [ [ 109.932080976739726, -7.40735855940647, 323.856590658514733 ], [ 109.932040499000081, -7.407395976999924, 647.440000000002328 ], [ 109.93178906100006, -7.407474038999988, 645.460000000006403 ], [ 109.931339061000031, -7.407523851999935, 643.607000000003609 ], [ 109.930973748000014, -7.407561164999914, 642.970000000001164 ], [ 109.930952436000027, -7.407586163999939, 642.970000000001164 ], [ 109.930717686000051, -7.407911476999944, 642.669999999998254 ], [ 109.930526998000076, -7.408152976999942, 642.360000000000582 ], [ 109.930364561000047, -7.408371413999896, 642.360000000000582 ], [ 109.930152499000087, -7.408607101999946, 641.860000000000582 ], [ 109.929910436000043, -7.408774976999981, 641.399999999994179 ], [ 109.929688998000117, -7.408836289, 639.929999999993015 ], [ 109.929565373000102, -7.408802601999957, 638.820000000006985 ], [ 109.929363936000044, -7.408684101999922, 637.339999999996508 ], [ 109.92905931100006, -7.408435539999962, 635.470000000001164 ], [ 109.92897299800002, -7.408319476999951, 634.25 ], [ 109.928824811000112, -7.408106538999919, 632.932000000000698 ], [ 109.928660436000101, -7.40799479, 632.220000000001164 ], [ 109.928612865423588, -7.407992261579817, 316.031154024760724 ] ], [ [ 109.928518712784083, -7.407987258500214, 315.875013523673658 ], [ 109.928509811000069, -7.407986788999958, 631.720000000001164 ], [ 109.928496540108327, -7.407990700986544, 315.848688387312507 ] ], [ [ 109.928474039757688, -7.407997333628233, 315.829509928419043 ], [ 109.928386624, -7.408023101999943, 631.509999999994761 ], [ 109.928315936000018, -7.408053539999974, 631.460000000006403 ], [ 109.928289516190347, -7.408069798374435, 315.730000000003201 ] ], [ [ 109.928242997996662, -7.408098425008081, 315.730000000003201 ], [ 109.928045374000092, -7.408220039999984, 631.460000000006403 ], [ 109.927924499000042, -7.408384976999953, 631.459000000002561 ], [ 109.927651936000046, -7.408892351999922, 631.460000000006403 ], [ 109.926844186000011, -7.409886851999962, 627.100000000005821 ], [ 109.926883636367904, -7.409943875713465, 313.406544116880013 ] ] ] } },
{ "type": "Feature", "properties": { "NAMOBJ": "Kali Banjaran", "TIPSNG": 0, "KLSSNG": 0, "FCODE": null, "REMARK": "Alur Sungai", "SRS_ID": null, "LCODE": "DA0280", "METADATA": null, "NAMWS": null, "NAMDAS": null, "STATUS": null, "WMAX": 0.0, "DBTMAX": 0.0, "SLPRT": 0.0, "SHAPE_Leng": 0.12482576068 }, "geometry": { "type": "MultiLineString", "coordinates": [ [ [ 109.934785781738512, -7.391558670992874, 345.557841668797266 ], [ 109.934824936000069, -7.391765477000016, 690.350000000005821 ], [ 109.934948124000044, -7.392089352, 689.376000000003842 ], [ 109.93495899900006, -7.392118039999966, 689.289999999993597 ], [ 109.934979436000063, -7.392250288999984, 689.029999999998836 ], [ 109.934929186000076, -7.392456664999917, 688.610000000000582 ], [ 109.934839686000132, -7.392492226999929, 687.979999999995925 ], [ 109.93477684258562, -7.39247379106965, 343.908536314525463 ] ], [ [ 109.934517263876899, -7.392397640290561, 343.57204539583563 ], [ 109.934434686000102, -7.392373414999957, 686.929999999993015 ], [ 109.934114936000029, -7.392435290000014, 686.029999999998836 ], [ 109.933954686000092, -7.392534663999976, 685.029999999998836 ], [ 109.933897123000037, -7.392822976999939, 683.139999999999418 ], [ 109.933994936000047, -7.393253788999969, 680.979999999995925 ], [ 109.933936436000096, -7.39351547699995, 680.240000000005239 ], [ 109.93373381100011, -7.393827288999903, 679.559999999997672 ], [ 109.93361937400006, -7.394117788999958, 678.399999999994179 ], [ 109.933589594456649, -7.394170757380037, 339.061355166032456 ] ], [ [ 109.933539335044969, -7.394260152962184, 338.827362062470627 ], [ 109.933466873000057, -7.394389039999931, 676.979999999995925 ], [ 109.933314999000103, -7.39444760199998, 675.660000000003492 ], [ 109.933084186000102, -7.394540601999948, 674.710000000006403 ], [ 109.933009311000035, -7.394659038999977, 674.289999999993597 ], [ 109.932940811000051, -7.394925976999948, 673.44999999999709 ], [ 109.932924973665251, -7.394944443440894, 336.677926480415636 ] ], [ [ 109.932653385294685, -7.395086902702174, 336.037305048389214 ], [ 109.932387249000072, -7.395121851999901, 671.240000000005239 ], [ 109.932165311000105, -7.395181538999955, 670.55000000000291 ], [ 109.93211281100011, -7.395271601999946, 669.979999999995925 ], [ 109.932059623000058, -7.3955394139999, 668.979999999995925 ], [ 109.932025695242274, -7.395771478102057, 334.03297793159021 ] ], [ [ 109.931807783768122, -7.396209127144616, 332.566886867451387 ], [ 109.931671623000014, -7.396409476999947, 663.5 ], [ 109.931698311, -7.396568351999948, 662.5 ], [ 109.931756166707146, -7.39665055753114, 330.932336526665722 ] ], [ [ 109.932045644752634, -7.397039537155276, 329.606982800542255 ], [ 109.932084936000109, -7.397091665, 658.869999999995343 ], [ 109.932017624000054, -7.397189101999972, 658.44999999999709 ], [ 109.931814186000096, -7.397337163999966, 657.970000000001164 ], [ 109.931278686000013, -7.397631039999945, 657.179999999993015 ], [ 109.931003374000056, -7.397859976999969, 656.760999999998603 ], [ 109.930916710901087, -7.397981690032898, 328.15588121573478 ] ], [ [ 109.930397316502962, -7.399089154167831, 325.296488628406905 ], [ 109.930200061000036, -7.399524539999939, 647.660000000003492 ], [ 109.930159998000093, -7.399562040000022, 647.600000000005821 ], [ 109.930111498000073, -7.399700289999915, 647.5 ], [ 109.930134061000075, -7.400199101999975, 646.869999999995343 ], [ 109.930107061000058, -7.400550101999974, 645.600000000005821 ], [ 109.92999937300003, -7.400753414999921, 644.240000000005239 ], [ 109.929842561000029, -7.40087041499992, 643.080000000001746 ], [ 109.929618248000025, -7.400939227000018, 642.5 ], [ 109.929482061000044, -7.401011976999909, 641.5 ], [ 109.929444686000053, -7.401169663999989, 640.759999999994761 ], [ 109.929444499000041, -7.401558163999981, 639.5 ], [ 109.929458811000075, -7.401834664999944, 639.179999999993015 ], [ 109.929417186000094, -7.402101976999946, 638.5 ], [ 109.929317061000063, -7.402298601999961, 637.55000000000291 ], [ 109.929179873000081, -7.402409664999913, 636.970000000001164 ], [ 109.92895299900006, -7.402440913999923, 636.240000000005239 ], [ 109.928260186000017, -7.402471163999939, 633.490000000005239 ], [ 109.92821943600002, -7.402520164999908, 633.490000000005239 ], [ 109.928098936000083, -7.402727226999987, 633.490000000005239 ], [ 109.927956187000092, -7.403115848, 633.384999999994761 ], [ 109.927894498000043, -7.403283726999936, 633.339999999996508 ], [ 109.927900311000087, -7.403663101999973, 632.020000000004075 ], [ 109.927937498000048, -7.403881913999959, 630.75 ], [ 109.927954936000077, -7.404115601999932, 628.880000000004657 ], [ 109.927912248000013, -7.404270539999962, 628.169999999998254 ], [ 109.927822248000027, -7.404300351999941, 627.759999999994761 ], [ 109.927168186000088, -7.404422851999952, 625.279999999998836 ], [ 109.92663331100006, -7.404635101999927, 624.869999999995343 ], [ 109.926431561000058, -7.404815101999899, 624.520000000004075 ], [ 109.926359749000071, -7.405021976999963, 624.360000000000582 ], [ 109.92620224800001, -7.405402851999947, 623.910000000003492 ], [ 109.926050248000038, -7.405515538999945, 623.649999999994179 ], [ 109.925599061000099, -7.405883289, 621.470000000001164 ], [ 109.925518998000058, -7.406071226999915, 621.119999999995343 ], [ 109.925565186000057, -7.40619797700001, 620.970000000001164 ], [ 109.925837999000066, -7.406887726999971, 619.649999999994179 ], [ 109.92580306100011, -7.406998851999928, 619.089999999996508 ], [ 109.925698936000018, -7.407020227, 618.429999999993015 ], [ 109.925219374000037, -7.407080101999989, 615.289999999993597 ], [ 109.925050374000094, -7.407217476999987, 614.369999999995343 ], [ 109.924958186000097, -7.407406163999967, 614.419999999998254 ], [ 109.924873936000054, -7.407760039999937, 614.270000000004075 ], [ 109.925121061000084, -7.40825910199993, 613.710000000006403 ], [ 109.925105061000082, -7.408555227, 613.160000000003492 ], [ 109.924978123000059, -7.409158976999956, 611.479999999995925 ], [ 109.924848123000061, -7.409266789999906, 610.669999999998254 ], [ 109.9245405610001, -7.409384664999978, 608.94999999999709 ], [ 109.924521186000092, -7.40939135199991, 608.908999999999651 ], [ 109.923940999000052, -7.409590851999985, 607.679999999993015 ], [ 109.923702436000028, -7.409698226999987, 606.210000000006403 ], [ 109.923636373000065, -7.409758976999951, 606.059999999997672 ], [ 109.923385436000089, -7.409898288999932, 605.69999999999709 ], [ 109.922873436000089, -7.409950727, 605.30000000000291 ], [ 109.922780374000027, -7.409958914999974, 605.30000000000291 ], [ 109.922682124000076, -7.410001914999979, 605.210000000006403 ], [ 109.922415311000023, -7.410080914999943, 604.850000000005821 ], [ 109.922067999000063, -7.410172038999933, 604.229999999995925 ], [ 109.921759436000031, -7.410226477, 603.720000000001164 ], [ 109.921539311000018, -7.410194726999945, 603.470000000001164 ], [ 109.921391311000036, -7.410110851999933, 603.0 ], [ 109.92117887300013, -7.409976976999959, 602.440000000002328 ], [ 109.920979003901095, -7.409938650142406, 300.938608774520958 ] ] ] } },
{ "type": "Feature", "properties": { "NAMOBJ": null, "TIPSNG": 0, "KLSSNG": 0, "FCODE": null, "REMARK": "Alur Sungai", "SRS_ID": null, "LCODE": "DA0280", "METADATA": null, "NAMWS": null, "NAMDAS": null, "STATUS": null, "WMAX": 0.0, "DBTMAX": 0.0, "SLPRT": 0.0, "SHAPE_Leng": 0.0142504571 }, "geometry": { "type": "MultiLineString", "coordinates": [ [ [ 109.937814847070825, -7.392820621198472, 350.383146993783157 ], [ 109.937773795131037, -7.392811225982984, 350.267090964527938 ] ], [ [ 109.937213153774309, -7.392795527722993, 348.669502842010445 ], [ 109.936899686000046, -7.392794602, 696.509999999994761 ], [ 109.936789874000027, -7.392869039999932, 695.559999999997672 ], [ 109.936551561000016, -7.393142477, 693.720000000001164 ], [ 109.93610243600007, -7.393716351999961, 692.005999999993946 ], [ 109.935520873000101, -7.394673914999965, 688.979999999995925 ], [ 109.9354833740001, -7.394938289, 688.289999999993597 ], [ 109.935348373000039, -7.395518101999913, 685.985000000000582 ], [ 109.935345936, -7.395896851999987, 684.5 ], [ 109.935323811000046, -7.396061664999946, 682.770000000004075 ], [ 109.935245499000047, -7.396441038999983, 680.139999999999418 ], [ 109.935146498000023, -7.396717664999956, 678.979999999995925 ], [ 109.934940123, -7.397100227, 676.919999999998254 ], [ 109.934462186000076, -7.397461476999949, 673.710000000006403 ], [ 109.934144749000012, -7.397594351999929, 672.660000000003492 ], [ 109.933801061000082, -7.397618414999966, 671.5 ], [ 109.933557186000073, -7.397582163999987, 670.080000000001746 ], [ 109.933099123, -7.397442913999923, 668.289999999993597 ], [ 109.932279498000042, -7.397116288999898, 660.710000000006403 ], [ 109.932084936000109, -7.397091665, 658.869999999995343 ] ] ] } },
{ "type": "Feature", "properties": { "NAMOBJ": "Kali Sabah", "TIPSNG": 0, "KLSSNG": 0, "FCODE": null, "REMARK": "Alur Sungai", "SRS_ID": null, "LCODE": "DA0280", "METADATA": null, "NAMWS": null, "NAMDAS": null, "STATUS": null, "WMAX": 0.0, "DBTMAX": 0.0, "SLPRT": 0.0, "SHAPE_Leng": 0.01840844432 }, "geometry": { "type": "MultiLineString", "coordinates": [ [ [ 109.941355424784447, -7.399094145725687, 350.17072849211462 ], [ 109.941392374000074, -7.399365851999955, 699.3557 ], [ 109.941440311000036, -7.399400351999967, 699.19999999999709 ] ] ] } },
{ "type": "Feature", "properties": { "NAMOBJ": null, "TIPSNG": 0, "KLSSNG": 0, "FCODE": null, "REMARK": "Alur Sungai", "SRS_ID": null, "LCODE": "DA0280", "METADATA": null, "NAMWS": null, "NAMDAS": null, "STATUS": null, "WMAX": 0.0, "DBTMAX": 0.0, "SLPRT": 0.0, "SHAPE_Leng": 0.01348470756 }, "geometry": { "type": "MultiLineString", "coordinates": [ [ [ 109.938056240526464, -7.40265088384225, 339.58492157108742 ], [ 109.938007999, -7.402698663999933, 678.369999999995343 ] ] ] } },
{ "type": "Feature", "properties": { "NAMOBJ": "Kali Ceger", "TIPSNG": 0, "KLSSNG": 0, "FCODE": null, "REMARK": "Alur Sungai", "SRS_ID": null, "LCODE": "DA0280", "METADATA": null, "NAMWS": null, "NAMDAS": null, "STATUS": null, "WMAX": 0.0, "DBTMAX": 0.0, "SLPRT": 0.0, "SHAPE_Leng": 0.00546488432 }, "geometry": { "type": "MultiLineString", "coordinates": [ [ [ 109.935156458904402, -7.406302470332741, 330.830585298360916 ], [ 109.934977941000028, -7.406343849999912, 660.345799999995506 ], [ 109.93497387400005, -7.406344726999984, 660.31600000000617 ], [ 109.934537123000055, -7.406379101999987, 656.610000000000582 ] ] ] } },
{ "type": "Feature", "properties": { "NAMOBJ": "Kali Sijeruk", "TIPSNG": 0, "KLSSNG": 0, "FCODE": null, "REMARK": "Sungai Satu Garis", "SRS_ID": null, "LCODE": "DA0280", "METADATA": null, "NAMWS": null, "NAMDAS": null, "STATUS": null, "WMAX": 0.0, "DBTMAX": 0.0, "SLPRT": 0.0, "SHAPE_Leng": 0.03583383645 }, "geometry": { "type": "MultiLineString", "coordinates": [ [ [ 109.926892123000073, -7.40172941499994, 638.710000000006403 ], [ 109.926891261393251, -7.401731980752462, 319.354490161410638 ] ], [ [ 109.926497449514656, -7.40195428527386, 319.330000000001746 ], [ 109.926351998000058, -7.401984288999889, 638.660000000003492 ], [ 109.926220748000034, -7.40212791399996, 638.660000000003492 ], [ 109.926219436000096, -7.402222414999963, 638.360000000000582 ], [ 109.926203873000048, -7.402474413999942, 637.5 ], [ 109.926130764042284, -7.402520678431515, 318.741538315073626 ] ], [ [ 109.925841435755714, -7.402666107412059, 318.505249413434001 ], [ 109.925311498000028, -7.402865164999943, 635.419999999998254 ], [ 109.925324936000067, -7.403063038999973, 634.30000000000291 ], [ 109.925402686000027, -7.403368165, 632.779999999998836 ], [ 109.925407436000057, -7.403628788999976, 631.309999999997672 ], [ 109.925339686000044, -7.403643664999963, 629.990000000005239 ], [ 109.925309313337678, -7.403638540132395, 314.879128192245446 ] ], [ [ 109.925015903349987, -7.403589032212669, 313.759768115129191 ], [ 109.92477481100012, -7.403548351999982, 625.679999999993015 ], [ 109.924653123000084, -7.403616039999987, 625.479999999995925 ], [ 109.924592561000054, -7.40407347699991, 625.479999999995925 ], [ 109.924549508706775, -7.40451481087079, 312.180512671072165 ] ], [ [ 109.923229039266431, -7.405411804287699, 308.427693204840182 ], [ 109.922984624000051, -7.405389226999974, 616.19999999999709 ], [ 109.922853811000067, -7.405447539, 616.19999999999709 ], [ 109.92279762400004, -7.405567851999921, 616.150999999998021 ], [ 109.922810998000074, -7.405810227, 616.100000000005821 ], [ 109.922884874000061, -7.405990976999936, 615.94999999999709 ], [ 109.922917311000077, -7.406039601999963, 615.789999999993597 ], [ 109.922956284834626, -7.40613087621598, 307.791453620493598 ] ], [ [ 109.922915907255458, -7.406518654130237, 306.695500961802679 ], [ 109.922862561000088, -7.406560976999936, 612.839999999996508 ], [ 109.92265668600001, -7.406410413999913, 612.839999999996508 ], [ 109.922298373000032, -7.406044664999937, 612.839999999996508 ], [ 109.9221928730001, -7.406090163999972, 612.839999999996508 ], [ 109.922090249000036, -7.406201165, 612.779999999998836 ], [ 109.922057311000074, -7.406353664999925, 611.910000000003492 ], [ 109.922129186000063, -7.406451663999951, 611.809999999997672 ], [ 109.922372561000131, -7.406724101999933, 611.809999999997672 ], [ 109.922382374000051, -7.406838476999981, 611.660000000003492 ], [ 109.922322498000071, -7.406873976999988, 611.759999999994761 ], [ 109.922197123000089, -7.406857789999981, 611.710000000006403 ], [ 109.921687669578844, -7.40676004620958, 305.804529884484793 ] ], [ [ 109.921605789329874, -7.406744336655852, 305.796418238842875 ], [ 109.921440061000069, -7.406712539999953, 611.559999999997672 ], [ 109.921177874000051, -7.406768163999937, 611.149999999994179 ], [ 109.92112562300008, -7.406872601999963, 610.889999999999418 ], [ 109.921138749000093, -7.407054601999922, 610.169999999998254 ], [ 109.921347061000105, -7.407562663999949, 608.119999999995343 ], [ 109.921309811000043, -7.407679102, 607.869999999995343 ], [ 109.921237468555645, -7.407708504000035, 303.830082302832466 ] ], [ [ 109.921130057414118, -7.407741243195145, 303.682339017851746 ], [ 109.92066937400007, -7.407859476999905, 606.130000000004657 ], [ 109.920413186000104, -7.407909601999966, 605.619999999995343 ], [ 109.920222686000059, -7.407869476999933, 605.100000000005821 ], [ 109.919961373000021, -7.407844665000011, 604.690000000002328 ], [ 109.919877624000023, -7.407898101999903, 604.279999999998836 ], [ 109.919886623000053, -7.408057351999934, 603.770000000004075 ], [ 109.919899270252131, -7.408210669561599, 301.712610704466954 ] ] ] } },
{ "type": "Feature", "properties": { "NAMOBJ": "Kali Tompo", "TIPSNG": 0, "KLSSNG": 0, "FCODE": null, "REMARK": "Alur Sungai", "SRS_ID": null, "LCODE": "DA0280", "METADATA": null, "NAMWS": null, "NAMDAS": null, "STATUS": null, "WMAX": 0.0, "DBTMAX": 0.0, "SLPRT": 0.0, "SHAPE_Leng": 0.02482169995 }, "geometry": { "type": "MultiLineString", "coordinates": [ [ [ 109.92723536602567, -7.400203655696543, 322.348385547565954 ], [ 109.92713012300004, -7.400445726999953, 644.217999999993481 ], [ 109.926972311000043, -7.400808851999978, 643.5 ], [ 109.926913811000091, -7.40108666399996, 642.130000000004657 ], [ 109.926926561000073, -7.401327976999942, 640.600000000005821 ], [ 109.926947811000062, -7.401540038999903, 639.080000000001746 ], [ 109.926892123000073, -7.40172941499994, 638.710000000006403 ] ] ] } },
{ "type": "Feature", "properties": { "NAMOBJ": "Kali Pahat", "TIPSNG": 0, "KLSSNG": 0, "FCODE": null, "REMARK": "Alur Sungai", "SRS_ID": null, "LCODE": "DA0280", "METADATA": null, "NAMWS": null, "NAMDAS": null, "STATUS": null, "WMAX": 0.0, "DBTMAX": 0.0, "SLPRT": 0.0, "SHAPE_Leng": 0.04383168799 }, "geometry": { "type": "MultiLineString", "coordinates": [ [ [ 109.941440311000036, -7.399400351999967, 699.19999999999709 ], [ 109.941481345085506, -7.399386977942021, 349.650161410033377 ] ] ] } }
]
}
